{"fetched_at":"2026-03-29T16:36:15Z","count":15609,"tles":[{"name":"STARLINK-36534","line1":"1 67496U 26012D   26087.74277376  .00040084  00000+0  14578-2 0  9991","line2":"2 67496  43.0014 206.9843 0001442 283.3952  76.6738 15.27589652 10672","category":"Starlink"}]}