{
  "norad_id": 67496,
  "name": "STARLINK-36534",
  "history": [
    {
      "epoch": "2026-03-28T17:49:35.652864",
      "apogee_km": 484.0097107221509,
      "perigee_km": 482.03067854093206,
      "latitude_deg": -39.0531834605348,
      "longitude_deg": -79.09371904004365,
      "semi_major_axis_km": 6861.157194631542,
      "eccentricity": 0.00014422,
      "inclination_deg": 43.0014,
      "raan_deg": 206.9843,
      "arg_perigee_deg": 283.3952,
      "mean_anomaly_deg": 76.6738,
      "mean_motion_rev_day": 15.27589652
    }
  ]
}